[{"OBJECT_NAME":"STARLINK-35857","OBJECT_ID":"2025-303Z","EPOCH":"2026-03-09T01:56:45.507264","MEAN_MOTION":15.27594448,"ECCENTRICITY":0.00011,"INCLINATION":43.0011,"RA_OF_ASC_NODE":314.0191,"ARG_OF_PERICENTER":308.1629,"MEAN_ANOMALY":51.9124,"EPHEMERIS_TYPE":0,"CLASSIFICATION_TYPE":"U","NORAD_CAT_ID":67186,"ELEMENT_SET_NO":999,"REV_AT_EPOCH":1264,"BSTAR":0.00093066942,"MEAN_MOTION_DOT":0.00025447,"MEAN_MOTION_DDOT":0},{"OBJECT_NAME":"COSMOS 1862","OBJECT_ID":"1987-055A","EPOCH":"2026-03-09T22:37:02.390592","MEAN_MOTION":15.30492139,"ECCENTRICITY":0.00097484,"INCLINATION":82.4856,"RA_OF_ASC_NODE":47.1862,"ARG_OF_PERICENTER":26.6325,"MEAN_ANOMALY":333.5414,"EPHEMERIS_TYPE":0,"CLASSIFICATION_TYPE":"U","NORAD_CAT_ID":18152,"ELEMENT_SET_NO":999,"REV_AT_EPOCH":8987,"BSTAR":0.00034125048,"MEAN_MOTION_DOT":0.00010107,"MEAN_MOTION_DDOT":0}]
